{
  "norad_id": 67884,
  "name": "STARLINK-36842",
  "history": [
    {
      "epoch": "2026-03-28T19:33:06.236928",
      "apogee_km": 345.0928295420208,
      "perigee_km": 342.96795242973076,
      "latitude_deg": -52.07290839704688,
      "longitude_deg": -33.393070080084726,
      "semi_major_axis_km": 6722.1673909858755,
      "eccentricity": 0.00015805,
      "inclination_deg": 97.2868,
      "raan_deg": 21.1486,
      "arg_perigee_deg": 98.3157,
      "mean_anomaly_deg": 261.8287,
      "mean_motion_rev_day": 15.75211152
    },
    {
      "epoch": "2026-03-29T01:39:01.160352",
      "apogee_km": 346.3558188502211,
      "perigee_km": 341.07647538847414,
      "latitude_deg": -22.242565120674374,
      "longitude_deg": -8.998710720101371,
      "semi_major_axis_km": 6721.853147119347,
      "eccentricity": 0.0003927,
      "inclination_deg": 97.2865,
      "raan_deg": 21.4152,
      "arg_perigee_deg": 110.0329,
      "mean_anomaly_deg": 250.1359,
      "mean_motion_rev_day": 15.75321614
    }
  ]
}